[{"OBJECT_NAME":"KONDOR-FKA NO. 1","OBJECT_ID":"2023-074A","EPOCH":"2026-03-07T10:13:03.575712","MEAN_MOTION":15.19772289,"ECCENTRICITY":0.00017305,"INCLINATION":97.4394,"RA_OF_ASC_NODE":262.4533,"ARG_OF_PERICENTER":84.6258,"MEAN_ANOMALY":275.5174,"EPHEMERIS_TYPE":0,"CLASSIFICATION_TYPE":"U","NORAD_CAT_ID":56756,"ELEMENT_SET_NO":999,"REV_AT_EPOCH":15423,"BSTAR":0.0003518818,"MEAN_MOTION_DOT":7.463e-5,"MEAN_MOTION_DDOT":0},{"OBJECT_NAME":"SITRO-AIS-65","OBJECT_ID":"2025-313U","EPOCH":"2026-03-09T22:33:12.029184","MEAN_MOTION":15.21573272,"ECCENTRICITY":0.0014457,"INCLINATION":97.4029,"RA_OF_ASC_NODE":145.2196,"ARG_OF_PERICENTER":357.2881,"MEAN_ANOMALY":2.8274,"EPHEMERIS_TYPE":0,"CLASSIFICATION_TYPE":"U","NORAD_CAT_ID":67266,"ELEMENT_SET_NO":999,"REV_AT_EPOCH":1085,"BSTAR":0.00052340138,"MEAN_MOTION_DOT":0.00011774,"MEAN_MOTION_DDOT":0}]
